[{"OBJECT_NAME":"STARLINK-5526","OBJECT_ID":"2023-064BA","EPOCH":"2026-03-09T11:31:27.690240","MEAN_MOTION":14.98328014,"ECCENTRICITY":0.00030473,"INCLINATION":69.9993,"RA_OF_ASC_NODE":104.8865,"ARG_OF_PERICENTER":264.999,"MEAN_ANOMALY":95.0821,"EPHEMERIS_TYPE":0,"CLASSIFICATION_TYPE":"U","NORAD_CAT_ID":56496,"ELEMENT_SET_NO":999,"REV_AT_EPOCH":15620,"BSTAR":-3.1848949e-5,"MEAN_MOTION_DOT":-4.73e-6,"MEAN_MOTION_DDOT":0},{"OBJECT_NAME":"SITRO-AIS 15","OBJECT_ID":"2024-199D","EPOCH":"2026-03-09T21:41:54.706560","MEAN_MOTION":14.9706426,"ECCENTRICITY":0.00074523,"INCLINATION":97.3312,"RA_OF_ASC_NODE":274.4424,"ARG_OF_PERICENTER":51.6231,"MEAN_ANOMALY":308.566,"EPHEMERIS_TYPE":0,"CLASSIFICATION_TYPE":"U","NORAD_CAT_ID":61738,"ELEMENT_SET_NO":999,"REV_AT_EPOCH":11696,"BSTAR":0.0003624053,"MEAN_MOTION_DOT":4.126e-5,"MEAN_MOTION_DDOT":0}]
